[Satellite]
VERSION=1.1
NAME=MOLNIYA 1-62
NICKNAME=MOLNIYA 1-62
TLE1=1 15214U 84089A   19314.54669358 -.00000307  00000-0 -13567-1 0  9991
TLE2=2 15214  62.7326 162.5272 7186965 264.1183  17.6224  1.97933773225452
STATUS=0
